{
"type": "FeatureCollection",
"name": "synthetic_stops",
"crs": { "type": "name", "properties": { "name": "urn:ogc:def:crs:OGC:1.3:CRS84" } },
"features": [
{ "type": "Feature", "properties": { "stop_id": "SYN000", "node_id": 7128123903, "lat": 20.2837104, "lon": 85.7685748, "base_weight": 16, "dominant_type": "hospital" }, "geometry": { "type": "Point", "coordinates": [ 85.7685748, 20.2837104 ] } },
{ "type": "Feature", "properties": { "stop_id": "SYN001", "node_id": 8151238495, "lat": 20.2663091, "lon": 85.8417352, "base_weight": 18, "dominant_type": "bus_station" }, "geometry": { "type": "Point", "coordinates": [ 85.8417352, 20.2663091 ] } },
{ "type": "Feature", "properties": { "stop_id": "SYN002", "node_id": 3042737266, "lat": 20.3126123, "lon": 85.8201712, "base_weight": 52, "dominant_type": "hospital" }, "geometry": { "type": "Point", "coordinates": [ 85.8201712, 20.3126123 ] } },
{ "type": "Feature", "properties": { "stop_id": "SYN003", "node_id": 3725656800, "lat": 20.3106691, "lon": 85.8322505, "base_weight": 22, "dominant_type": "hospital" }, "geometry": { "type": "Point", "coordinates": [ 85.8322505, 20.3106691 ] } },
{ "type": "Feature", "properties": { "stop_id": "SYN004", "node_id": 3368287991, "lat": 20.2940558, "lon": 85.812119, "base_weight": 24, "dominant_type": "hospital" }, "geometry": { "type": "Point", "coordinates": [ 85.812119, 20.2940558 ] } },
{ "type": "Feature", "properties": { "stop_id": "SYN005", "node_id": 3704352163, "lat": 20.274345, "lon": 85.794534, "base_weight": 62, "dominant_type": "hospital" }, "geometry": { "type": "Point", "coordinates": [ 85.794534, 20.274345 ] } },
{ "type": "Feature", "properties": { "stop_id": "SYN006", "node_id": 293463192, "lat": 20.2702742, "lon": 85.8074254, "base_weight": 12, "dominant_type": "college" }, "geometry": { "type": "Point", "coordinates": [ 85.8074254, 20.2702742 ] } },
{ "type": "Feature", "properties": { "stop_id": "SYN007", "node_id": 2935249307, "lat": 20.2439212, "lon": 85.7852559, "base_weight": 16, "dominant_type": "hospital" }, "geometry": { "type": "Point", "coordinates": [ 85.7852559, 20.2439212 ] } },
{ "type": "Feature", "properties": { "stop_id": "SYN008", "node_id": 2955625544, "lat": 20.2788712, "lon": 85.8437199, "base_weight": 14, "dominant_type": "hospital" }, "geometry": { "type": "Point", "coordinates": [ 85.8437199, 20.2788712 ] } },
{ "type": "Feature", "properties": { "stop_id": "SYN009", "node_id": 11722595104, "lat": 20.2585212, "lon": 85.7875037, "base_weight": 29, "dominant_type": "hospital" }, "geometry": { "type": "Point", "coordinates": [ 85.7875037, 20.2585212 ] } },
{ "type": "Feature", "properties": { "stop_id": "SYN010", "node_id": 11009744770, "lat": 20.2485389, "lon": 85.84158, "base_weight": 8, "dominant_type": "hospital" }, "geometry": { "type": "Point", "coordinates": [ 85.84158, 20.2485389 ] } },
{ "type": "Feature", "properties": { "stop_id": "SYN011", "node_id": 12658316881, "lat": 20.2479393, "lon": 85.8022414, "base_weight": 14, "dominant_type": "university" }, "geometry": { "type": "Point", "coordinates": [ 85.8022414, 20.2479393 ] } },
{ "type": "Feature", "properties": { "stop_id": "SYN012", "node_id": 4822468395, "lat": 20.3213961, "lon": 85.8126425, "base_weight": 8, "dominant_type": "hospital" }, "geometry": { "type": "Point", "coordinates": [ 85.8126425, 20.3213961 ] } },
{ "type": "Feature", "properties": { "stop_id": "SYN013", "node_id": 3725827518, "lat": 20.326407, "lon": 85.8177353, "base_weight": 71, "dominant_type": "hospital" }, "geometry": { "type": "Point", "coordinates": [ 85.8177353, 20.326407 ] } },
{ "type": "Feature", "properties": { "stop_id": "SYN014", "node_id": 12525975089, "lat": 20.3219644, "lon": 85.8440989, "base_weight": 9, "dominant_type": "station" }, "geometry": { "type": "Point", "coordinates": [ 85.8440989, 20.3219644 ] } },
{ "type": "Feature", "properties": { "stop_id": "SYN015", "node_id": 11936417210, "lat": 20.3229546, "lon": 85.8824316, "base_weight": 5, "dominant_type": "mall" }, "geometry": { "type": "Point", "coordinates": [ 85.8824316, 20.3229546 ] } },
{ "type": "Feature", "properties": { "stop_id": "SYN016", "node_id": 2704039246, "lat": 20.2907443, "lon": 85.842771, "base_weight": 96, "dominant_type": "hospital" }, "geometry": { "type": "Point", "coordinates": [ 85.842771, 20.2907443 ] } },
{ "type": "Feature", "properties": { "stop_id": "SYN017", "node_id": 293456280, "lat": 20.2600592, "lon": 85.8381151, "base_weight": 24, "dominant_type": "hospital" }, "geometry": { "type": "Point", "coordinates": [ 85.8381151, 20.2600592 ] } },
{ "type": "Feature", "properties": { "stop_id": "SYN018", "node_id": 6947583278, "lat": 20.2843401, "lon": 85.8083326, "base_weight": 14, "dominant_type": "hospital" }, "geometry": { "type": "Point", "coordinates": [ 85.8083326, 20.2843401 ] } },
{ "type": "Feature", "properties": { "stop_id": "SYN019", "node_id": 3714706047, "lat": 20.2347288, "lon": 85.8417535, "base_weight": 37, "dominant_type": "hospital" }, "geometry": { "type": "Point", "coordinates": [ 85.8417535, 20.2347288 ] } },
{ "type": "Feature", "properties": { "stop_id": "SYN020", "node_id": 293464902, "lat": 20.2640269, "lon": 85.83313, "base_weight": 16, "dominant_type": "hospital" }, "geometry": { "type": "Point", "coordinates": [ 85.83313, 20.2640269 ] } },
{ "type": "Feature", "properties": { "stop_id": "SYN021", "node_id": 8151508476, "lat": 20.2633258, "lon": 85.8469917, "base_weight": 8, "dominant_type": "hospital" }, "geometry": { "type": "Point", "coordinates": [ 85.8469917, 20.2633258 ] } },
{ "type": "Feature", "properties": { "stop_id": "SYN022", "node_id": 10259284171, "lat": 20.3520096, "lon": 85.8181505, "base_weight": 53, "dominant_type": "college" }, "geometry": { "type": "Point", "coordinates": [ 85.8181505, 20.3520096 ] } },
{ "type": "Feature", "properties": { "stop_id": "SYN023", "node_id": 8156525885, "lat": 20.3062102, "lon": 85.8765958, "base_weight": 8, "dominant_type": "hospital" }, "geometry": { "type": "Point", "coordinates": [ 85.8765958, 20.3062102 ] } },
{ "type": "Feature", "properties": { "stop_id": "SYN024", "node_id": 8151533591, "lat": 20.270778, "lon": 85.8479759, "base_weight": 24, "dominant_type": "hospital" }, "geometry": { "type": "Point", "coordinates": [ 85.8479759, 20.270778 ] } },
{ "type": "Feature", "properties": { "stop_id": "SYN025", "node_id": 3726941456, "lat": 20.3465097, "lon": 85.8157123, "base_weight": 8, "dominant_type": "hospital" }, "geometry": { "type": "Point", "coordinates": [ 85.8157123, 20.3465097 ] } },
{ "type": "Feature", "properties": { "stop_id": "SYN026", "node_id": 293452037, "lat": 20.24684, "lon": 85.8367, "base_weight": 8, "dominant_type": "hospital" }, "geometry": { "type": "Point", "coordinates": [ 85.8367, 20.24684 ] } },
{ "type": "Feature", "properties": { "stop_id": "SYN027", "node_id": 3725777483, "lat": 20.3297878, "lon": 85.822478, "base_weight": 8, "dominant_type": "hospital" }, "geometry": { "type": "Point", "coordinates": [ 85.822478, 20.3297878 ] } },
{ "type": "Feature", "properties": { "stop_id": "SYN028", "node_id": 3722327217, "lat": 20.2920796, "lon": 85.8566291, "base_weight": 10, "dominant_type": "mall" }, "geometry": { "type": "Point", "coordinates": [ 85.8566291, 20.2920796 ] } },
{ "type": "Feature", "properties": { "stop_id": "SYN029", "node_id": 293461372, "lat": 20.2751364, "lon": 85.8330294, "base_weight": 31, "dominant_type": "hospital" }, "geometry": { "type": "Point", "coordinates": [ 85.8330294, 20.2751364 ] } },
{ "type": "Feature", "properties": { "stop_id": "SYN030", "node_id": 8141472775, "lat": 20.2173484, "lon": 85.8520354, "base_weight": 8, "dominant_type": "hospital" }, "geometry": { "type": "Point", "coordinates": [ 85.8520354, 20.2173484 ] } },
{ "type": "Feature", "properties": { "stop_id": "SYN031", "node_id": 3706277292, "lat": 20.2623648, "lon": 85.7956317, "base_weight": 8, "dominant_type": "hospital" }, "geometry": { "type": "Point", "coordinates": [ 85.7956317, 20.2623648 ] } },
{ "type": "Feature", "properties": { "stop_id": "SYN032", "node_id": 13022825214, "lat": 20.3532547, "lon": 85.826287, "base_weight": 20, "dominant_type": "hospital" }, "geometry": { "type": "Point", "coordinates": [ 85.826287, 20.3532547 ] } },
{ "type": "Feature", "properties": { "stop_id": "SYN033", "node_id": 3725762981, "lat": 20.3341203, "lon": 85.8097273, "base_weight": 8, "dominant_type": "hospital" }, "geometry": { "type": "Point", "coordinates": [ 85.8097273, 20.3341203 ] } },
{ "type": "Feature", "properties": { "stop_id": "SYN034", "node_id": 3725763618, "lat": 20.3411216, "lon": 85.8218699, "base_weight": 16, "dominant_type": "hospital" }, "geometry": { "type": "Point", "coordinates": [ 85.8218699, 20.3411216 ] } },
{ "type": "Feature", "properties": { "stop_id": "SYN035", "node_id": 3726941483, "lat": 20.3468145, "lon": 85.8237947, "base_weight": 8, "dominant_type": "hospital" }, "geometry": { "type": "Point", "coordinates": [ 85.8237947, 20.3468145 ] } },
{ "type": "Feature", "properties": { "stop_id": "SYN036", "node_id": 8145831822, "lat": 20.3581971, "lon": 85.8330934, "base_weight": 16, "dominant_type": "hospital" }, "geometry": { "type": "Point", "coordinates": [ 85.8330934, 20.3581971 ] } },
{ "type": "Feature", "properties": { "stop_id": "SYN037", "node_id": 3725677801, "lat": 20.3228022, "lon": 85.8007614, "base_weight": 8, "dominant_type": "hospital" }, "geometry": { "type": "Point", "coordinates": [ 85.8007614, 20.3228022 ] } },
{ "type": "Feature", "properties": { "stop_id": "SYN038", "node_id": 6956641147, "lat": 20.3206134, "lon": 85.8351331, "base_weight": 8, "dominant_type": "hospital" }, "geometry": { "type": "Point", "coordinates": [ 85.8351331, 20.3206134 ] } },
{ "type": "Feature", "properties": { "stop_id": "SYN039", "node_id": 3719690584, "lat": 20.2722383, "lon": 85.8028272, "base_weight": 8, "dominant_type": "hospital" }, "geometry": { "type": "Point", "coordinates": [ 85.8028272, 20.2722383 ] } },
{ "type": "Feature", "properties": { "stop_id": "SYN040", "node_id": 3478637356, "lat": 20.3279327, "lon": 85.8391415, "base_weight": 8, "dominant_type": "hospital" }, "geometry": { "type": "Point", "coordinates": [ 85.8391415, 20.3279327 ] } },
{ "type": "Feature", "properties": { "stop_id": "SYN041", "node_id": 2565956552, "lat": 20.2670635, "lon": 85.7996497, "base_weight": 8, "dominant_type": "hospital" }, "geometry": { "type": "Point", "coordinates": [ 85.7996497, 20.2670635 ] } },
{ "type": "Feature", "properties": { "stop_id": "SYN042", "node_id": 2955360392, "lat": 20.2877489, "lon": 85.8102285, "base_weight": 8, "dominant_type": "hospital" }, "geometry": { "type": "Point", "coordinates": [ 85.8102285, 20.2877489 ] } },
{ "type": "Feature", "properties": { "stop_id": "SYN043", "node_id": 293460124, "lat": 20.2545049, "lon": 85.8427321, "base_weight": 28, "dominant_type": "hospital" }, "geometry": { "type": "Point", "coordinates": [ 85.8427321, 20.2545049 ] } },
{ "type": "Feature", "properties": { "stop_id": "SYN044", "node_id": 293458235, "lat": 20.2818603, "lon": 85.8559113, "base_weight": 16, "dominant_type": "hospital" }, "geometry": { "type": "Point", "coordinates": [ 85.8559113, 20.2818603 ] } },
{ "type": "Feature", "properties": { "stop_id": "SYN045", "node_id": 3711678988, "lat": 20.2418348, "lon": 85.8059084, "base_weight": 8, "dominant_type": "hospital" }, "geometry": { "type": "Point", "coordinates": [ 85.8059084, 20.2418348 ] } },
{ "type": "Feature", "properties": { "stop_id": "SYN046", "node_id": 4613805922, "lat": 20.2746976, "lon": 85.8459857, "base_weight": 8, "dominant_type": "hospital" }, "geometry": { "type": "Point", "coordinates": [ 85.8459857, 20.2746976 ] } },
{ "type": "Feature", "properties": { "stop_id": "SYN047", "node_id": 293458023, "lat": 20.2814116, "lon": 85.8485158, "base_weight": 8, "dominant_type": "hospital" }, "geometry": { "type": "Point", "coordinates": [ 85.8485158, 20.2814116 ] } },
{ "type": "Feature", "properties": { "stop_id": "SYN048", "node_id": 3722327087, "lat": 20.2869248, "lon": 85.8594924, "base_weight": 8, "dominant_type": "hospital" }, "geometry": { "type": "Point", "coordinates": [ 85.8594924, 20.2869248 ] } },
{ "type": "Feature", "properties": { "stop_id": "SYN049", "node_id": 4714739244, "lat": 20.3000231, "lon": 85.8215954, "base_weight": 50, "dominant_type": "hospital" }, "geometry": { "type": "Point", "coordinates": [ 85.8215954, 20.3000231 ] } },
{ "type": "Feature", "properties": { "stop_id": "SYN050", "node_id": 3711679547, "lat": 20.2465011, "lon": 85.808399, "base_weight": 8, "dominant_type": "hospital" }, "geometry": { "type": "Point", "coordinates": [ 85.808399, 20.2465011 ] } },
{ "type": "Feature", "properties": { "stop_id": "SYN051", "node_id": 6965143039, "lat": 20.2316446, "lon": 85.8155083, "base_weight": 8, "dominant_type": "hospital" }, "geometry": { "type": "Point", "coordinates": [ 85.8155083, 20.2316446 ] } },
{ "type": "Feature", "properties": { "stop_id": "SYN052", "node_id": 8100497700, "lat": 20.2362134, "lon": 85.8128958, "base_weight": 8, "dominant_type": "hospital" }, "geometry": { "type": "Point", "coordinates": [ 85.8128958, 20.2362134 ] } },
{ "type": "Feature", "properties": { "stop_id": "SYN053", "node_id": 3713297958, "lat": 20.2609965, "lon": 85.8515459, "base_weight": 8, "dominant_type": "hospital" }, "geometry": { "type": "Point", "coordinates": [ 85.8515459, 20.2609965 ] } },
{ "type": "Feature", "properties": { "stop_id": "SYN054", "node_id": 293456224, "lat": 20.2544488, "lon": 85.8322515, "base_weight": 8, "dominant_type": "hospital" }, "geometry": { "type": "Point", "coordinates": [ 85.8322515, 20.2544488 ] } },
{ "type": "Feature", "properties": { "stop_id": "SYN055", "node_id": 293456478, "lat": 20.252311, "lon": 85.8372638, "base_weight": 8, "dominant_type": "hospital" }, "geometry": { "type": "Point", "coordinates": [ 85.8372638, 20.252311 ] } },
{ "type": "Feature", "properties": { "stop_id": "SYN056", "node_id": 13546428578, "lat": 20.2744903, "lon": 85.7640412, "base_weight": 8, "dominant_type": "hospital" }, "geometry": { "type": "Point", "coordinates": [ 85.7640412, 20.2744903 ] } },
{ "type": "Feature", "properties": { "stop_id": "SYN057", "node_id": 8145504224, "lat": 20.3634104, "lon": 85.8260239, "base_weight": 8, "dominant_type": "hospital" }, "geometry": { "type": "Point", "coordinates": [ 85.8260239, 20.3634104 ] } },
{ "type": "Feature", "properties": { "stop_id": "SYN058", "node_id": 8153809748, "lat": 20.262762, "lon": 85.8122359, "base_weight": 7, "dominant_type": "university" }, "geometry": { "type": "Point", "coordinates": [ 85.8122359, 20.262762 ] } },
{ "type": "Feature", "properties": { "stop_id": "SYN059", "node_id": 2443921846, "lat": 20.2723692, "lon": 85.7814939, "base_weight": 6, "dominant_type": "college" }, "geometry": { "type": "Point", "coordinates": [ 85.7814939, 20.2723692 ] } },
{ "type": "Feature", "properties": { "stop_id": "SYN060", "node_id": 3724245729, "lat": 20.2767201, "lon": 85.774067, "base_weight": 7, "dominant_type": "university" }, "geometry": { "type": "Point", "coordinates": [ 85.774067, 20.2767201 ] } },
{ "type": "Feature", "properties": { "stop_id": "SYN061", "node_id": 2443937419, "lat": 20.2596355, "lon": 85.7781653, "base_weight": 8, "dominant_type": "hospital" }, "geometry": { "type": "Point", "coordinates": [ 85.7781653, 20.2596355 ] } },
{ "type": "Feature", "properties": { "stop_id": "SYN062", "node_id": 2390658944, "lat": 20.2656414, "lon": 85.7847338, "base_weight": 9, "dominant_type": "bus_station" }, "geometry": { "type": "Point", "coordinates": [ 85.7847338, 20.2656414 ] } },
{ "type": "Feature", "properties": { "stop_id": "SYN063", "node_id": 3718134539, "lat": 20.2597338, "lon": 85.8221861, "base_weight": 8, "dominant_type": "hospital" }, "geometry": { "type": "Point", "coordinates": [ 85.8221861, 20.2597338 ] } },
{ "type": "Feature", "properties": { "stop_id": "SYN064", "node_id": 9901476726, "lat": 20.3048302, "lon": 85.8436719, "base_weight": 7, "dominant_type": "university" }, "geometry": { "type": "Point", "coordinates": [ 85.8436719, 20.3048302 ] } },
{ "type": "Feature", "properties": { "stop_id": "SYN065", "node_id": 3725788939, "lat": 20.3025811, "lon": 85.8245135, "base_weight": 6, "dominant_type": "college" }, "geometry": { "type": "Point", "coordinates": [ 85.8245135, 20.3025811 ] } },
{ "type": "Feature", "properties": { "stop_id": "SYN066", "node_id": 3711679015, "lat": 20.2420267, "lon": 85.7828496, "base_weight": 6, "dominant_type": "college" }, "geometry": { "type": "Point", "coordinates": [ 85.7828496, 20.2420267 ] } },
{ "type": "Feature", "properties": { "stop_id": "SYN067", "node_id": 3719506253, "lat": 20.2804832, "lon": 85.8266429, "base_weight": 8, "dominant_type": "hospital" }, "geometry": { "type": "Point", "coordinates": [ 85.8266429, 20.2804832 ] } },
{ "type": "Feature", "properties": { "stop_id": "SYN068", "node_id": 6949998013, "lat": 20.2849143, "lon": 85.8262051, "base_weight": 5, "dominant_type": "mall" }, "geometry": { "type": "Point", "coordinates": [ 85.8262051, 20.2849143 ] } },
{ "type": "Feature", "properties": { "stop_id": "SYN069", "node_id": 6947456722, "lat": 20.2570907, "lon": 85.8394498, "base_weight": 5, "dominant_type": "mall" }, "geometry": { "type": "Point", "coordinates": [ 85.8394498, 20.2570907 ] } },
{ "type": "Feature", "properties": { "stop_id": "SYN070", "node_id": 3724245662, "lat": 20.2706061, "lon": 85.7627285, "base_weight": 5, "dominant_type": "mall" }, "geometry": { "type": "Point", "coordinates": [ 85.7627285, 20.2706061 ] } },
{ "type": "Feature", "properties": { "stop_id": "SYN071", "node_id": 4817211524, "lat": 20.2400274, "lon": 85.8329037, "base_weight": 8, "dominant_type": "hospital" }, "geometry": { "type": "Point", "coordinates": [ 85.8329037, 20.2400274 ] } },
{ "type": "Feature", "properties": { "stop_id": "SYN072", "node_id": 3730052120, "lat": 20.2537607, "lon": 85.8054686, "base_weight": 4, "dominant_type": "marketplace" }, "geometry": { "type": "Point", "coordinates": [ 85.8054686, 20.2537607 ] } }
]
}
